start=new Date('2022-09-05T00:00:00.000Z').valueOf();
sats=[{"TLE_LINE1":"1 45568U 20025AP  22247.81820327  .00002089  00000-0  15900-3 0  9992","OBJECT_TYPE":"PAYLOAD","OBJECT_NAME":"STARLINK-1363","CENTER_NAME":"EARTH","NORAD_CAT_ID":"45568","DECAY_DATE":null,"APOAPSIS":"548.246","COUNTRY_CODE":"US","OBJECT_ID":"2020-025AP","GP_ID":"211748150","FILE":"3558394","RCS_SIZE":"LARGE","CLASSIFICATION_TYPE":"U","PERIAPSIS":"546.068","MEAN_ELEMENT_THEORY":"SGP4","REF_FRAME":"TEME","SEMIMAJOR_AXIS":"6925.292","MEAN_MOTION":"15.06418444","ELEMENT_SET_NO":"999","MEAN_MOTION_DOT":"0.00002089","REV_AT_EPOCH":"13215","TLE_LINE2":"2 45568  53.0549  81.4067 0001573 108.0267 252.0894 15.06418444132151","MEAN_MOTION_DDOT":"0.0000000000000","BSTAR":"0.00015900000000","EPHEMERIS_TYPE":"0","ARG_OF_PERICENTER":"108.0267","RA_OF_ASC_NODE":"81.4067","MEAN_ANOMALY":"252.0894","TIME_SYSTEM":"UTC","INCLINATION":"53.0549","ECCENTRICITY":"0.00015730","EPOCH":"2022-09-04T19:38:12.762528","LAUNCH_DATE":"2020-04-22","PERIOD":"95.591","SITE":"AFETR"},{"MEAN_MOTION":"15.06407955","ELEMENT_SET_NO":"999","MEAN_MOTION_DOT":"0.00001949","EPHEMERIS_TYPE":"0","BSTAR":"0.00014967000000","MEAN_MOTION_DDOT":"0.0000000000000","TLE_LINE2":"2 45569  53.0545  81.2148 0001444  81.4440 278.6712 15.06407955132158","REV_AT_EPOCH":"13215","RCS_SIZE":"LARGE","SEMIMAJOR_AXIS":"6925.324","REF_FRAME":"TEME","MEAN_ELEMENT_THEORY":"SGP4","CLASSIFICATION_TYPE":"U","PERIAPSIS":"546.189","OBJECT_ID":"2020-025AQ","COUNTRY_CODE":"US","APOAPSIS":"548.189","FILE":"3558394","GP_ID":"211748398","OBJECT_TYPE":"PAYLOAD","TLE_LINE1":"1 45569U 20025AQ  22247.80712496  .00001949  00000-0  14967-3 0  9995","CENTER_NAME":"EARTH","OBJECT_NAME":"STARLINK-1366","DECAY_DATE":null,"NORAD_CAT_ID":"45569","LAUNCH_DATE":"2020-04-22","SITE":"AFETR","PERIOD":"95.592","ECCENTRICITY":"0.00014440","EPOCH":"2022-09-04T19:22:15.596544","INCLINATION":"53.0545","RA_OF_ASC_NODE":"81.2148","MEAN_ANOMALY":"278.6712","TIME_SYSTEM":"UTC","ARG_OF_PERICENTER":"81.4440"},{"ECCENTRICITY":"0.00014120","EPOCH":"2022-09-04T19:11:38.996160","INCLINATION":"53.0546","SITE":"AFETR","PERIOD":"95.592","LAUNCH_DATE":"2020-04-22","ARG_OF_PERICENTER":"95.3065","MEAN_ANOMALY":"264.8085","TIME_SYSTEM":"UTC","RA_OF_ASC_NODE":"81.2378","SEMIMAJOR_AXIS":"6925.337","REF_FRAME":"TEME","MEAN_ELEMENT_THEORY":"SGP4","CLASSIFICATION_TYPE":"U","PERIAPSIS":"546.224","RCS_SIZE":"LARGE","EPHEMERIS_TYPE":"0","BSTAR":"0.00009817900000","MEAN_MOTION_DDOT":"0.0000000000000","TLE_LINE2":"2 45570  53.0546  81.2378 0001412  95.3065 264.8085 15.06403669132156","REV_AT_EPOCH":"13215","MEAN_MOTION_DOT":"0.00001181","ELEMENT_SET_NO":"999","MEAN_MOTION":"15.06403669","DECAY_DATE":null,"NORAD_CAT_ID":"45570","OBJECT_TYPE":"PAYLOAD","TLE_LINE1":"1 45570U 20025AR  22247.79975690  .00001181  00000-0  98179-4 0  9998","OBJECT_NAME":"STARLINK-1376","CENTER_NAME":"EARTH","FILE":"3558394","GP_ID":"211749635","OBJECT_ID":"2020-025AR","COUNTRY_CODE":"US","APOAPSIS":"548.180"},{"ECCENTRICITY":"0.00013290","EPOCH":"2022-09-04T19:34:12.321696","INCLINATION":"53.0532","LAUNCH_DATE":"2020-04-22","PERIOD":"95.592","SITE":"AFETR","ARG_OF_PERICENTER":"92.8467","RA_OF_ASC_NODE":"71.1640","TIME_SYSTEM":"UTC","MEAN_ANOMALY":"267.2674","RCS_SIZE":"LARGE","MEAN_ELEMENT_THEORY":"SGP4","CLASSIFICATION_TYPE":"U","PERIAPSIS":"546.272","SEMIMAJOR_AXIS":"6925.328","REF_FRAME":"TEME","MEAN_MOTION_DOT":"0.00001417","MEAN_MOTION":"15.06406835","ELEMENT_SET_NO":"999","MEAN_MOTION_DDOT":"0.0000000000000","BSTAR":"0.00011396000000","REV_AT_EPOCH":"13231","TLE_LINE2":"2 45571  53.0532  71.1640 0001329  92.8467 267.2674 15.06406835132314","EPHEMERIS_TYPE":"0","OBJECT_NAME":"STARLINK-1261","TLE_LINE1":"1 45571U 20025AS  22247.81542039  .00001417  00000-0  11396-3 0  9996","OBJECT_TYPE":"PAYLOAD","CENTER_NAME":"EARTH","NORAD_CAT_ID":"45571","DECAY_DATE":null,"COUNTRY_CODE":"US","APOAPSIS":"548.113","OBJECT_ID":"2020-025AS","FILE":"3558394","GP_ID":"211749890"},{"MEAN_ANOMALY":"263.0332","TIME_SYSTEM":"UTC","RA_OF_ASC_NODE":"71.2120","ARG_OF_PERICENTER":"97.0786","SITE":"AFETR","PERIOD":"95.592","LAUNCH_DATE":"2020-04-22","INCLINATION":"53.0534","ECCENTRICITY":"0.00011430","EPOCH":"2022-09-04T19:23:35.670336","GP_ID":"211748651","FILE":"3558394","OBJECT_ID":"2020-025AT","APOAPSIS":"547.987","COUNTRY_CODE":"US","DECAY_DATE":null,"NORAD_CAT_ID":"45572","OBJECT_TYPE":"PAYLOAD","TLE_LINE1":"1 45572U 20025AT  22247.80805174  .00000737  00000-0  68381-4 0  9999","OBJECT_NAME":"STARLINK-1320","CENTER_NAME":"EARTH","EPHEMERIS_TYPE":"0","REV_AT_EPOCH":"13230","TLE_LINE2":"2 45572  53.0534  71.2120 0001143  97.0786 263.0332 15.06405782132300","BSTAR":"0.00006838100000","MEAN_MOTION_DDOT":"0.0000000000000","ELEMENT_SET_NO":"999","MEAN_MOTION":"15.06405782","MEAN_MOTION_DOT":"0.00000737","REF_FRAME":"TEME","SEMIMAJOR_AXIS":"6925.331","CLASSIFICATION_TYPE":"U","PERIAPSIS":"546.404","MEAN_ELEMENT_THEORY":"SGP4","RCS_SIZE":"LARGE"},{"RCS_SIZE":"LARGE","MEAN_ELEMENT_THEORY":"SGP4","PERIAPSIS":"546.027","CLASSIFICATION_TYPE":"U","SEMIMAJOR_AXIS":"6925.324","REF_FRAME":"TEME","MEAN_MOTION_DOT":"0.00001839","ELEMENT_SET_NO":"999","MEAN_MOTION":"15.06407957","BSTAR":"0.00014228000000","MEAN_MOTION_DDOT":"0.0000000000000","REV_AT_EPOCH":"13199","TLE_LINE2":"2 45573  53.0557  71.3203 0001678  71.5974 288.5197 15.06407957131999","EPHEMERIS_TYPE":"0","CENTER_NAME":"EARTH","TLE_LINE1":"1 45573U 20025AU  22247.78593031  .00001839  00000-0  14228-3 0  9997","OBJECT_TYPE":"PAYLOAD","OBJECT_NAME":"STARLINK-1321","NORAD_CAT_ID":"45573","DECAY_DATE":null,"COUNTRY_CODE":"US","APOAPSIS":"548.351","OBJECT_ID":"2020-025AU","FILE":"3558394","GP_ID":"211748899","EPOCH":"2022-09-04T18:51:44.378784","ECCENTRICITY":"0.00016780","INCLINATION":"53.0557","LAUNCH_DATE":"2020-04-22","PERIOD":"95.592","SITE":"AFETR","ARG_OF_PERICENTER":"71.5974","RA_OF_ASC_NODE":"71.3203","TIME_SYSTEM":"UTC","MEAN_ANOMALY":"288.5197"},{"TLE_LINE2":"2 45574  53.0529  71.1822 0001411  88.2864 271.8287 15.06403848132319","REV_AT_EPOCH":"13231","BSTAR":"0.00021247000000","MEAN_MOTION_DDOT":"0.0000000000000","EPHEMERIS_TYPE":"0","ELEMENT_SET_NO":"999","MEAN_MOTION":"15.06403848","MEAN_MOTION_DOT":"0.00002885","PERIAPSIS":"546.225","CLASSIFICATION_TYPE":"U","MEAN_ELEMENT_THEORY":"SGP4","REF_FRAME":"TEME","SEMIMAJOR_AXIS":"6925.337","RCS_SIZE":"LARGE","GP_ID":"211749136","FILE":"3558394","APOAPSIS":"548.179","COUNTRY_CODE":"US","OBJECT_ID":"2020-025AV","NORAD_CAT_ID":"45574","DECAY_DATE":null,"TLE_LINE1":"1 45574U 20025AV  22247.81174161  .00002885  00000-0  21247-3 0  9992","OBJECT_TYPE":"PAYLOAD","OBJECT_NAME":"STARLINK-1324","CENTER_NAME":"EARTH","PERIOD":"95.592","SITE":"AFETR","LAUNCH_DATE":"2020-04-22","INCLINATION":"53.0529","ECCENTRICITY":"0.00014110","EPOCH":"2022-09-04T19:28:54.475104","TIME_SYSTEM":"UTC","MEAN_ANOMALY":"271.8287","RA_OF_ASC_NODE":"71.1822","ARG_OF_PERICENTER":"88.2864"},{"TIME_SYSTEM":"UTC","MEAN_ANOMALY":"286.4777","RA_OF_ASC_NODE":"53.7446","ARG_OF_PERICENTER":"73.6363","PERIOD":"94.911","SITE":"AFETR","LAUNCH_DATE":"2020-04-22","ECCENTRICITY":"0.00013380","EPOCH":"2022-09-04T18:55:31.780992","INCLINATION":"52.9968","FILE":"3558394","GP_ID":"211749390","COUNTRY_CODE":"US","APOAPSIS":"515.176","OBJECT_ID":"2020-025AW","NORAD_CAT_ID":"45575","DECAY_DATE":null,"CENTER_NAME":"EARTH","TLE_LINE1":"1 45575U 20025AW  22247.78856228  .00024143  00000-0  12111-2 0  9990","OBJECT_TYPE":"PAYLOAD","OBJECT_NAME":"STARLINK-1326","MEAN_MOTION_DDOT":"0.0000000000000","BSTAR":"0.00121110000000","REV_AT_EPOCH":"13251","TLE_LINE2":"2 45575  52.9968  53.7446 0001338  73.6363 286.4777 15.17218329132511","EPHEMERIS_TYPE":"0","ELEMENT_SET_NO":"999","MEAN_MOTION_DOT":"0.00024143","MEAN_MOTION":"15.17218329","MEAN_ELEMENT_THEORY":"SGP4","PERIAPSIS":"513.332","CLASSIFICATION_TYPE":"U","SEMIMAJOR_AXIS":"6892.389","REF_FRAME":"TEME","RCS_SIZE":"LARGE"},{"GP_ID":"211748151","FILE":"3558394","APOAPSIS":"548.146","COUNTRY_CODE":"US","OBJECT_ID":"2020-025AX","NORAD_CAT_ID":"45576","DECAY_DATE":null,"OBJECT_NAME":"STARLINK-1328","TLE_LINE1":"1 45576U 20025AX  22247.83753182  .00002202  00000-0  16665-3 0  9993","OBJECT_TYPE":"PAYLOAD","CENTER_NAME":"EARTH","TLE_LINE2":"2 45576  53.0559  71.0760 0001377  83.4805 276.6341 15.06406915132319","REV_AT_EPOCH":"13231","MEAN_MOTION_DDOT":"0.0000000000000","BSTAR":"0.00016665000000","EPHEMERIS_TYPE":"0","ELEMENT_SET_NO":"999","MEAN_MOTION":"15.06406915","MEAN_MOTION_DOT":"0.00002202","PERIAPSIS":"546.239","CLASSIFICATION_TYPE":"U","MEAN_ELEMENT_THEORY":"SGP4","REF_FRAME":"TEME","SEMIMAJOR_AXIS":"6925.327","RCS_SIZE":"LARGE","MEAN_ANOMALY":"276.6341","TIME_SYSTEM":"UTC","RA_OF_ASC_NODE":"71.0760","ARG_OF_PERICENTER":"83.4805","PERIOD":"95.592","SITE":"AFETR","LAUNCH_DATE":"2020-04-22","INCLINATION":"53.0559","ECCENTRICITY":"0.00013770","EPOCH":"2022-09-04T20:06:02.749248"},{"MEAN_ANOMALY":"252.6761","TIME_SYSTEM":"UTC","RA_OF_ASC_NODE":"71.2285","ARG_OF_PERICENTER":"107.4415","PERIOD":"95.550","SITE":"AFETR","LAUNCH_DATE":"2020-04-22","INCLINATION":"53.0547","ECCENTRICITY":"0.00017120","EPOCH":"2022-09-04T18:51:00.084096","GP_ID":"211748399","FILE":"3558394","APOAPSIS":"546.375","COUNTRY_CODE":"US","OBJECT_ID":"2020-025AY","NORAD_CAT_ID":"45577","DECAY_DATE":null,"OBJECT_TYPE":"PAYLOAD","TLE_LINE1":"1 45577U 20025AY  22247.78541764  .00017698  00000-0  11828-2 0  9999","OBJECT_NAME":"STARLINK-1330","CENTER_NAME":"EARTH","TLE_LINE2":"2 45577  53.0547  71.2285 0001712 107.4415 252.6761 15.07060682132293","REV_AT_EPOCH":"13229","MEAN_MOTION_DDOT":"0.0000000000000","BSTAR":"0.00118280000000","EPHEMERIS_TYPE":"0","ELEMENT_SET_NO":"999","MEAN_MOTION_DOT":"0.00017698","MEAN_MOTION":"15.07060682","PERIAPSIS":"544.004","CLASSIFICATION_TYPE":"U","MEAN_ELEMENT_THEORY":"SGP4","REF_FRAME":"TEME","SEMIMAJOR_AXIS":"6923.324","RCS_SIZE":"LARGE"}];
